{"epoch":1784799577,"count":18318,"objects":[{"id":"28649","name":"CARTOSAT-1","type":"PAYLOAD","l1":"1 28649U 05017A   26203.51055906  .00000868  00000-0  92762-4 0  9998","l2":"2 28649  97.5307 224.9733 0000951  58.4804 301.6508 14.91130144149089"},{"id":"39731","name":"KAZEOSAT 1","type":"PAYLOAD","l1":"1 39731U 14024A   26203.96346201 -.00000083  00000-0 -12151-4 0  9995","l2":"2 39731  98.3189 275.5172 0001211  89.4127 270.7201 14.42038468643718"},{"id":"40010","name":"KAZEOSAT 2","type":"PAYLOAD","l1":"1 40010U 14033A   26203.93055866  .00000702  00000-0  87055-4 0  9999","l2":"2 40010  97.5403  41.6521 0007986 190.8129 169.2917 14.85508221654268"},{"id":"41240","name":"JASON 3","type":"PAYLOAD","l1":"1 41240U 16002A   26203.88624373 -.00000043  00000-0  74846-4 0  9995","l2":"2 41240  66.0415  50.7816 0008125 270.1805  89.8282 12.87628968491841"},{"id":"43783","name":"KAZSTSAT","type":"PAYLOAD","l1":"1 43783U 18099AB  26203.52148855  .00000185  00000-0  19413-4 0  9999","l2":"2 43783  97.4303 233.8591 0007191 309.7222  50.3368 14.99960745416603"},{"id":"58990","name":"INSAT 3DS","type":"PAYLOAD","l1":"1 58990U 24033A   26203.70186971 -.00000151  00000-0  00000-0 0  9993","l2":"2 58990   0.0722 262.8454 0001382 221.0262 151.2875  1.00270628 47426"},{"id":"61735","name":"IONOSFERA-M 01","type":"PAYLOAD","l1":"1 61735U 24199A   26203.91928427  .00000027  00000-0  31861-4 0  9994","l2":"2 61735  98.7125  76.7063 0002030  62.1153 298.0231 14.22760233132784"},{"id":"61736","name":"IONOSFERA-M 02","type":"PAYLOAD","l1":"1 61736U 24199B   26203.88317039  .00000027  00000-0  31471-4 0  9999","l2":"2 61736  98.7124  76.5810 0000813 131.3509 228.7739 14.22763514135908"},{"id":"64876","name":"IONOSFERA-M 03","type":"PAYLOAD","l1":"1 64876U 25155A   26203.93284155  .00000048  00000-0  41731-4 0  9991","l2":"2 64876  98.6046 164.9423 0002453 100.5619 259.5835 14.21491886 51480"},{"id":"64877","name":"IONOSFERA-M 04","type":"PAYLOAD","l1":"1 64877U 25155B   26203.89723291  .00000042  00000-0  38943-4 0  9991","l2":"2 64877  98.6045 164.8246 0001902  91.8308 268.3088 14.21494269 51472"}]}