{
 "generated_at": "2026-07-23T07:33:13Z",
 "sources": [
  {
   "name": "CelesTrak",
   "url": "https://celestrak.org/NORAD/elements/",
   "license": "frei verfügbar; Attribution. Ursprünglich USSPACECOM/Space-Track."
  },
  {
   "name": "GCAT (J. McDowell, planet4589.org)",
   "url": "https://planet4589.org/space/gcat/",
   "license": "CC-BY 4.0"
  }
 ],
 "satellites": [
  {
   "norad": 58990,
   "name": "INSAT-3DS",
   "intl": "2024-033A",
   "group": "weather",
   "gcat": {
    "class": "C",
    "category": "MET",
    "owner": "ISRO",
    "state": "IN"
   },
   "omm": {
    "OBJECT_NAME": "INSAT-3DS",
    "OBJECT_ID": "2024-033A",
    "EPOCH": "2026-07-22T16:50:41.542944",
    "MEAN_MOTION": 1.00270628,
    "ECCENTRICITY": 0.00013819,
    "INCLINATION": 0.0722,
    "RA_OF_ASC_NODE": 262.8454,
    "ARG_OF_PERICENTER": 221.0262,
    "MEAN_ANOMALY": 151.2875,
    "EPHEMERIS_TYPE": 0,
    "CLASSIFICATION_TYPE": "U",
    "NORAD_CAT_ID": 58990,
    "ELEMENT_SET_NO": 999,
    "REV_AT_EPOCH": 4742,
    "BSTAR": 0,
    "MEAN_MOTION_DOT": -0.00000151,
    "MEAN_MOTION_DDOT": 0
   }
  },
  {
   "norad": 61735,
   "name": "IONOSFERA-M 1",
   "intl": "2024-199A",
   "group": "resource",
   "gcat": {
    "class": "C",
    "category": "SCI",
    "owner": "VNIIEMI",
    "state": "RU"
   },
   "omm": {
    "OBJECT_NAME": "IONOSFERA-M 1",
    "OBJECT_ID": "2024-199A",
    "EPOCH": "2026-07-22T22:03:46.160928",
    "MEAN_MOTION": 14.22760233,
    "ECCENTRICITY": 0.00020302,
    "INCLINATION": 98.7125,
    "RA_OF_ASC_NODE": 76.7063,
    "ARG_OF_PERICENTER": 62.1153,
    "MEAN_ANOMALY": 298.0231,
    "EPHEMERIS_TYPE": 0,
    "CLASSIFICATION_TYPE": "U",
    "NORAD_CAT_ID": 61735,
    "ELEMENT_SET_NO": 999,
    "REV_AT_EPOCH": 13278,
    "BSTAR": 0.000031861279,
    "MEAN_MOTION_DOT": 2.7e-7,
    "MEAN_MOTION_DDOT": 0
   }
  },
  {
   "norad": 61736,
   "name": "IONOSFERA-M 2",
   "intl": "2024-199B",
   "group": "resource",
   "gcat": {
    "class": "C",
    "category": "SCI",
    "owner": "VNIIEMI",
    "state": "RU"
   },
   "omm": {
    "OBJECT_NAME": "IONOSFERA-M 2",
    "OBJECT_ID": "2024-199B",
    "EPOCH": "2026-07-22T21:11:45.921696",
    "MEAN_MOTION": 14.22763514,
    "ECCENTRICITY": 0.00008129,
    "INCLINATION": 98.7124,
    "RA_OF_ASC_NODE": 76.581,
    "ARG_OF_PERICENTER": 131.3509,
    "MEAN_ANOMALY": 228.7739,
    "EPHEMERIS_TYPE": 0,
    "CLASSIFICATION_TYPE": "U",
    "NORAD_CAT_ID": 61736,
    "ELEMENT_SET_NO": 999,
    "REV_AT_EPOCH": 13590,
    "BSTAR": 0.000031470552,
    "MEAN_MOTION_DOT": 2.7e-7,
    "MEAN_MOTION_DDOT": 0
   }
  },
  {
   "norad": 64876,
   "name": "IONOSFERA-M 3",
   "intl": "2025-155A",
   "group": "resource",
   "gcat": {
    "class": "C",
    "category": "SCI",
    "owner": "VNIIEMI",
    "state": "RU"
   },
   "omm": {
    "OBJECT_NAME": "IONOSFERA-M 3",
    "OBJECT_ID": "2025-155A",
    "EPOCH": "2026-07-22T22:23:17.509920",
    "MEAN_MOTION": 14.21491886,
    "ECCENTRICITY": 0.0002453,
    "INCLINATION": 98.6046,
    "RA_OF_ASC_NODE": 164.9423,
    "ARG_OF_PERICENTER": 100.5619,
    "MEAN_ANOMALY": 259.5835,
    "EPHEMERIS_TYPE": 0,
    "CLASSIFICATION_TYPE": "U",
    "NORAD_CAT_ID": 64876,
    "ELEMENT_SET_NO": 999,
    "REV_AT_EPOCH": 5148,
    "BSTAR": 0.000041730643,
    "MEAN_MOTION_DOT": 4.8e-7,
    "MEAN_MOTION_DDOT": 0
   }
  },
  {
   "norad": 64877,
   "name": "IONOSFERA-M 4",
   "intl": "2025-155B",
   "group": "resource",
   "gcat": {
    "class": "C",
    "category": "SCI",
    "owner": "VNIIEMI",
    "state": "RU"
   },
   "omm": {
    "OBJECT_NAME": "IONOSFERA-M 4",
    "OBJECT_ID": "2025-155B",
    "EPOCH": "2026-07-22T21:32:00.923424",
    "MEAN_MOTION": 14.21494269,
    "ECCENTRICITY": 0.00019017,
    "INCLINATION": 98.6045,
    "RA_OF_ASC_NODE": 164.8246,
    "ARG_OF_PERICENTER": 91.8308,
    "MEAN_ANOMALY": 268.3088,
    "EPHEMERIS_TYPE": 0,
    "CLASSIFICATION_TYPE": "U",
    "NORAD_CAT_ID": 64877,
    "ELEMENT_SET_NO": 999,
    "REV_AT_EPOCH": 5147,
    "BSTAR": 0.000038943444,
    "MEAN_MOTION_DOT": 4.2e-7,
    "MEAN_MOTION_DDOT": 0
   }
  },
  {
   "norad": 28649,
   "name": "IRS-P5 (CARTOSAT-1)",
   "intl": "2005-017A",
   "group": "resource",
   "gcat": {
    "class": null,
    "category": null,
    "owner": null,
    "state": null
   },
   "omm": {
    "OBJECT_NAME": "IRS-P5 (CARTOSAT-1)",
    "OBJECT_ID": "2005-017A",
    "EPOCH": "2026-07-22T12:15:12.302784",
    "MEAN_MOTION": 14.91130144,
    "ECCENTRICITY": 0.00009507,
    "INCLINATION": 97.5307,
    "RA_OF_ASC_NODE": 224.9733,
    "ARG_OF_PERICENTER": 58.4804,
    "MEAN_ANOMALY": 301.6508,
    "EPHEMERIS_TYPE": 0,
    "CLASSIFICATION_TYPE": "U",
    "NORAD_CAT_ID": 28649,
    "ELEMENT_SET_NO": 999,
    "REV_AT_EPOCH": 14908,
    "BSTAR": 0.000092761994,
    "MEAN_MOTION_DOT": 0.00000868,
    "MEAN_MOTION_DDOT": 0
   }
  },
  {
   "norad": 41240,
   "name": "JASON-3",
   "intl": "2016-002A",
   "group": "resource",
   "gcat": {
    "class": "C",
    "category": "SCI/MET",
    "owner": "CNES/NOAA",
    "state": "F"
   },
   "omm": {
    "OBJECT_NAME": "JASON-3",
    "OBJECT_ID": "2016-002A",
    "EPOCH": "2026-07-22T21:16:11.458272",
    "MEAN_MOTION": 12.87628968,
    "ECCENTRICITY": 0.0008125,
    "INCLINATION": 66.0415,
    "RA_OF_ASC_NODE": 50.7816,
    "ARG_OF_PERICENTER": 270.1805,
    "MEAN_ANOMALY": 89.8282,
    "EPHEMERIS_TYPE": 0,
    "CLASSIFICATION_TYPE": "U",
    "NORAD_CAT_ID": 41240,
    "ELEMENT_SET_NO": 999,
    "REV_AT_EPOCH": 49184,
    "BSTAR": 0.000074846122,
    "MEAN_MOTION_DOT": -4.3e-7,
    "MEAN_MOTION_DDOT": 0
   }
  },
  {
   "norad": 39731,
   "name": "KAZEOSAT 1",
   "intl": "2014-024A",
   "group": "resource",
   "gcat": {
    "class": "C",
    "category": "IMG",
    "owner": "KAZK",
    "state": "KZ"
   },
   "omm": {
    "OBJECT_NAME": "KAZEOSAT 1",
    "OBJECT_ID": "2014-024A",
    "EPOCH": "2026-07-22T23:07:23.117664",
    "MEAN_MOTION": 14.42038468,
    "ECCENTRICITY": 0.0001211,
    "INCLINATION": 98.3189,
    "RA_OF_ASC_NODE": 275.5172,
    "ARG_OF_PERICENTER": 89.4127,
    "MEAN_ANOMALY": 270.7201,
    "EPHEMERIS_TYPE": 0,
    "CLASSIFICATION_TYPE": "U",
    "NORAD_CAT_ID": 39731,
    "ELEMENT_SET_NO": 999,
    "REV_AT_EPOCH": 64371,
    "BSTAR": -0.000012150526,
    "MEAN_MOTION_DOT": -8.3e-7,
    "MEAN_MOTION_DDOT": 0
   }
  },
  {
   "norad": 40010,
   "name": "KAZEOSAT 2",
   "intl": "2014-033A",
   "group": "resource",
   "gcat": {
    "class": "C",
    "category": "IMG",
    "owner": "KAZK",
    "state": "KZ"
   },
   "omm": {
    "OBJECT_NAME": "KAZEOSAT 2",
    "OBJECT_ID": "2014-033A",
    "EPOCH": "2026-07-22T22:20:00.268224",
    "MEAN_MOTION": 14.85508221,
    "ECCENTRICITY": 0.00079865,
    "INCLINATION": 97.5403,
    "RA_OF_ASC_NODE": 41.6521,
    "ARG_OF_PERICENTER": 190.8129,
    "MEAN_ANOMALY": 169.2917,
    "EPHEMERIS_TYPE": 0,
    "CLASSIFICATION_TYPE": "U",
    "NORAD_CAT_ID": 40010,
    "ELEMENT_SET_NO": 999,
    "REV_AT_EPOCH": 65426,
    "BSTAR": 0.000087055426,
    "MEAN_MOTION_DOT": 0.00000702,
    "MEAN_MOTION_DDOT": 0
   }
  },
  {
   "norad": 43783,
   "name": "KAZSTSAT",
   "intl": "2018-099AB",
   "group": "resource",
   "gcat": {
    "class": "B",
    "category": "IMG",
    "owner": "GHALAM",
    "state": "KZ"
   },
   "omm": {
    "OBJECT_NAME": "KAZSTSAT",
    "OBJECT_ID": "2018-099AB",
    "EPOCH": "2026-07-22T12:30:56.610720",
    "MEAN_MOTION": 14.99960745,
    "ECCENTRICITY": 0.00071907,
    "INCLINATION": 97.4303,
    "RA_OF_ASC_NODE": 233.8591,
    "ARG_OF_PERICENTER": 309.7222,
    "MEAN_ANOMALY": 50.3368,
    "EPHEMERIS_TYPE": 0,
    "CLASSIFICATION_TYPE": "U",
    "NORAD_CAT_ID": 43783,
    "ELEMENT_SET_NO": 999,
    "REV_AT_EPOCH": 41660,
    "BSTAR": 0.000019413296,
    "MEAN_MOTION_DOT": 0.00000185,
    "MEAN_MOTION_DDOT": 0
   }
  }
 ]
}
